{
    "links": {
        "self": "http://www.neowsapp.com/rest/v1/neo/3843456?api_key=iIulBulltgU6a56xZRHN4H3l9WmuAYTsLGpBGhQ2"
    },
    "id": "3843456",
    "neo_reference_id": "3843456",
    "name": "(2019 OY4)",
    "designation": "2019 OY4",
    "nasa_jpl_url": "http://ssd.jpl.nasa.gov/sbdb.cgi?sstr=3843456",
    "absolute_magnitude_h": 25.1,
    "estimated_diameter": {
        "kilometers": {
            "estimated_diameter_min": 0.0253837029,
            "estimated_diameter_max": 0.0567596853
        },
        "meters": {
            "estimated_diameter_min": 25.3837029364,
            "estimated_diameter_max": 56.7596852866
        },
        "miles": {
            "estimated_diameter_min": 0.0157726969,
            "estimated_diameter_max": 0.0352688224
        },
        "feet": {
            "estimated_diameter_min": 83.279867942,
            "estimated_diameter_max": 186.2194458756
        }
    },
    "is_potentially_hazardous_asteroid": false,
    "close_approach_data": [
        {
            "close_approach_date": "2019-07-23",
            "close_approach_date_full": "2019-Jul-23 05:35",
            "epoch_date_close_approach": 1563860100000,
            "relative_velocity": {
                "kilometers_per_second": "8.6730942318",
                "kilometers_per_hour": "31223.1392345653",
                "miles_per_hour": "19400.8444871664"
            },
            "miss_distance": {
                "astronomical": "0.0575042355",
                "lunar": "22.3691476095",
                "kilometers": "8602511.146778385",
                "miles": "5345352.559316313"
            },
            "orbiting_body": "Earth"
        }
    ],
    "orbital_data": {
        "orbit_id": "1",
        "orbit_determination_date": "2019-08-02 11:12:02",
        "first_observation_date": "2019-07-24",
        "last_observation_date": "2019-08-02",
        "data_arc_in_days": 9,
        "observations_used": 10,
        "orbit_uncertainty": "9",
        "minimum_orbit_intersection": ".0412217",
        "jupiter_tisserand_invariant": "3.323",
        "epoch_osculation": "2458690.5",
        "eccentricity": ".5532438108411751",
        "semi_major_axis": "2.343900400581381",
        "inclination": "9.42646935063078",
        "ascending_node_longitude": "286.1092683423225",
        "orbital_period": "1310.711641431925",
        "perihelion_distance": "1.047152010731581",
        "perihelion_argument": "16.76217031350438",
        "aphelion_distance": "3.640648790431182",
        "perihelion_time": "2458691.766616465251",
        "mean_anomaly": "359.6521111790903",
        "mean_motion": ".2746599546538761",
        "equinox": "J2000",
        "orbit_class": {
            "orbit_class_type": "AMO",
            "orbit_class_description": "Near-Earth asteroid orbits similar to that of 1221 Amor",
            "orbit_class_range": "1.017 AU < q (perihelion) < 1.3 AU"
        }
    },
    "is_sentry_object": false
}